{
  "norad_id": 54244,
  "name": "GALAXY 32 (G-32)",
  "history": [
    {
      "epoch": "2026-03-28T12:38:25.147680",
      "apogee_km": 35799.19059249021,
      "perigee_km": 35774.313308009565,
      "latitude_deg": -0.013045611199596657,
      "longitude_deg": 14.961275199893862,
      "semi_major_axis_km": 42164.88895024989,
      "eccentricity": 0.000295,
      "inclination_deg": 0.015,
      "raan_deg": 118.7764,
      "arg_perigee_deg": 242.1591,
      "mean_anomaly_deg": 283.598,
      "mean_motion_rev_day": 1.00271225
    }
  ]
}